start=new Date('2022-04-06T00:00:00.000Z').valueOf();
sats=[{"RA_OF_ASC_NODE":"179.3870","EPOCH":"2022-04-05T15:01:46.154496","MEAN_MOTION_DDOT":"0.0000000000000","TLE_LINE2":"2 46679  53.0562 179.3870 0001571  54.8326 305.2810 15.06407477 81269","TLE_LINE1":"1 46679U 20073K   22095.62622864  .00009240  00000-0  63828-3 0  9993","INCLINATION":"53.0562","APOAPSIS":"548.279","FILE":"3389912","MEAN_ELEMENT_THEORY":"SGP4","COUNTRY_CODE":"US","NORAD_CAT_ID":"46679","OBJECT_TYPE":"PAYLOAD","LAUNCH_DATE":"2020-10-18","PERIAPSIS":"546.103","OBJECT_NAME":"STARLINK-1773","DECAY_DATE":null,"ECCENTRICITY":"0.00015710","OBJECT_ID":"2020-073K","SEMIMAJOR_AXIS":"6925.326","SITE":"AFETR","REF_FRAME":"TEME","PERIOD":"95.592","MEAN_ANOMALY":"305.2810","ARG_OF_PERICENTER":"54.8326","MEAN_MOTION":"15.06407477","GP_ID":"200542886","BSTAR":"0.00063828000000","CENTER_NAME":"EARTH","ELEMENT_SET_NO":"999","CLASSIFICATION_TYPE":"U","REV_AT_EPOCH":"8126","EPHEMERIS_TYPE":"0","MEAN_MOTION_DOT":"0.00009240","RCS_SIZE":"LARGE","TIME_SYSTEM":"UTC"},{"BSTAR":"0.00076120000000","ELEMENT_SET_NO":"999","CENTER_NAME":"EARTH","MEAN_MOTION_DOT":"0.00011078","TIME_SYSTEM":"UTC","RCS_SIZE":"LARGE","REV_AT_EPOCH":"8080","EPHEMERIS_TYPE":"0","CLASSIFICATION_TYPE":"U","ECCENTRICITY":"0.00012340","SEMIMAJOR_AXIS":"6925.311","SITE":"AFETR","OBJECT_ID":"2020-073L","DECAY_DATE":null,"OBJECT_NAME":"STARLINK-1774","MEAN_MOTION":"15.06412357","GP_ID":"200544137","REF_FRAME":"TEME","MEAN_ANOMALY":"304.8106","PERIOD":"95.591","ARG_OF_PERICENTER":"55.2999","FILE":"3389912","MEAN_ELEMENT_THEORY":"SGP4","COUNTRY_CODE":"US","APOAPSIS":"548.030","PERIAPSIS":"546.321","LAUNCH_DATE":"2020-10-18","NORAD_CAT_ID":"46680","OBJECT_TYPE":"PAYLOAD","RA_OF_ASC_NODE":"213.4756","EPOCH":"2022-04-05T19:51:42.683040","TLE_LINE2":"2 46680  53.0554 213.4756 0001234  55.2999 304.8106 15.06412357 80807","MEAN_MOTION_DDOT":"0.0000000000000","TLE_LINE1":"1 46680U 20073L   22095.82757735  .00011078  00000-0  76120-3 0  9994","INCLINATION":"53.0554"},{"OBJECT_ID":"2020-073M","SITE":"AFETR","SEMIMAJOR_AXIS":"6925.333","ECCENTRICITY":"0.00015750","OBJECT_NAME":"STARLINK-1775","DECAY_DATE":null,"GP_ID":"200543888","MEAN_MOTION":"15.06404971","PERIOD":"95.592","MEAN_ANOMALY":"311.8019","ARG_OF_PERICENTER":"48.3105","REF_FRAME":"TEME","CENTER_NAME":"EARTH","ELEMENT_SET_NO":"999","BSTAR":"0.00052008000000","RCS_SIZE":"LARGE","TIME_SYSTEM":"UTC","MEAN_MOTION_DOT":"0.00007475","CLASSIFICATION_TYPE":"U","EPHEMERIS_TYPE":"0","REV_AT_EPOCH":"8079","EPOCH":"2022-04-05T19:09:14.518080","RA_OF_ASC_NODE":"213.6081","INCLINATION":"53.0534","TLE_LINE2":"2 46681  53.0534 213.6081 0001575  48.3105 311.8019 15.06404971 80791","MEAN_MOTION_DDOT":"0.0000000000000","TLE_LINE1":"1 46681U 20073M   22095.79808470  .00007475  00000-0  52008-3 0  9999","COUNTRY_CODE":"US","FILE":"3389912","MEAN_ELEMENT_THEORY":"SGP4","APOAPSIS":"548.289","LAUNCH_DATE":"2020-10-18","PERIAPSIS":"546.108","OBJECT_TYPE":"PAYLOAD","NORAD_CAT_ID":"46681"},{"ECCENTRICITY":"0.00016970","SITE":"AFETR","SEMIMAJOR_AXIS":"6925.286","OBJECT_ID":"2020-073N","DECAY_DATE":null,"OBJECT_NAME":"STARLINK-1776","MEAN_MOTION":"15.06420272","GP_ID":"200543136","REF_FRAME":"TEME","PERIOD":"95.591","MEAN_ANOMALY":"314.9619","ARG_OF_PERICENTER":"45.1508","BSTAR":"0.00085128000000","ELEMENT_SET_NO":"999","CENTER_NAME":"EARTH","MEAN_MOTION_DOT":"0.00012428","TIME_SYSTEM":"UTC","RCS_SIZE":"LARGE","EPHEMERIS_TYPE":"0","REV_AT_EPOCH":"8078","CLASSIFICATION_TYPE":"U","RA_OF_ASC_NODE":"214.0738","EPOCH":"2022-04-05T16:35:18.837600","TLE_LINE1":"1 46682U 20073N   22095.69119025  .00012428  00000-0  85128-3 0  9993","TLE_LINE2":"2 46682  53.0550 214.0738 0001697  45.1508 314.9619 15.06420272 80782","MEAN_MOTION_DDOT":"0.0000000000000","INCLINATION":"53.0550","FILE":"3389912","MEAN_ELEMENT_THEORY":"SGP4","COUNTRY_CODE":"US","APOAPSIS":"548.327","LAUNCH_DATE":"2020-10-18","PERIAPSIS":"545.976","NORAD_CAT_ID":"46682","OBJECT_TYPE":"PAYLOAD"},{"INCLINATION":"53.0538","TLE_LINE1":"1 46684U 20073Q   22095.74602290  .00011520  00000-0  79073-3 0  9996","TLE_LINE2":"2 46684  53.0538 198.8305 0001784  47.7863 312.3277 15.06413416 81008","MEAN_MOTION_DDOT":"0.0000000000000","EPOCH":"2022-04-05T17:54:16.378560","RA_OF_ASC_NODE":"198.8305","LAUNCH_DATE":"2020-10-18","PERIAPSIS":"545.937","OBJECT_TYPE":"PAYLOAD","NORAD_CAT_ID":"46684","COUNTRY_CODE":"US","FILE":"3389912","MEAN_ELEMENT_THEORY":"SGP4","APOAPSIS":"548.408","GP_ID":"200543386","MEAN_MOTION":"15.06413416","PERIOD":"95.591","MEAN_ANOMALY":"312.3277","ARG_OF_PERICENTER":"47.7863","REF_FRAME":"TEME","OBJECT_ID":"2020-073Q","SEMIMAJOR_AXIS":"6925.307","SITE":"AFETR","ECCENTRICITY":"0.00017840","OBJECT_NAME":"STARLINK-1780","DECAY_DATE":null,"RCS_SIZE":"LARGE","TIME_SYSTEM":"UTC","MEAN_MOTION_DOT":"0.00011520","CLASSIFICATION_TYPE":"U","REV_AT_EPOCH":"8100","EPHEMERIS_TYPE":"0","CENTER_NAME":"EARTH","ELEMENT_SET_NO":"999","BSTAR":"0.00079073000000"},{"RA_OF_ASC_NODE":"213.6014","EPOCH":"2022-04-05T19:14:32.913312","MEAN_MOTION_DDOT":"0.0000000000000","TLE_LINE2":"2 46685  53.0542 213.6014 0001794  46.7417 313.3721 15.06420226 80799","TLE_LINE1":"1 46685U 20073R   22095.80176983  .00011698  00000-0  80247-3 0  9990","INCLINATION":"53.0542","APOAPSIS":"548.394","MEAN_ELEMENT_THEORY":"SGP4","FILE":"3389912","COUNTRY_CODE":"US","NORAD_CAT_ID":"46685","OBJECT_TYPE":"PAYLOAD","LAUNCH_DATE":"2020-10-18","PERIAPSIS":"545.909","OBJECT_NAME":"STARLINK-1781","DECAY_DATE":null,"ECCENTRICITY":"0.00017940","OBJECT_ID":"2020-073R","SITE":"AFETR","SEMIMAJOR_AXIS":"6925.287","REF_FRAME":"TEME","PERIOD":"95.591","ARG_OF_PERICENTER":"46.7417","MEAN_ANOMALY":"313.3721","MEAN_MOTION":"15.06420226","GP_ID":"200543638","BSTAR":"0.00080247000000","CENTER_NAME":"EARTH","ELEMENT_SET_NO":"999","CLASSIFICATION_TYPE":"U","EPHEMERIS_TYPE":"0","REV_AT_EPOCH":"8079","MEAN_MOTION_DOT":"0.00011698","RCS_SIZE":"LARGE","TIME_SYSTEM":"UTC"},{"PERIAPSIS":"546.076","LAUNCH_DATE":"2020-10-18","NORAD_CAT_ID":"46686","OBJECT_TYPE":"PAYLOAD","FILE":"3389912","MEAN_ELEMENT_THEORY":"SGP4","COUNTRY_CODE":"US","APOAPSIS":"548.250","TLE_LINE2":"2 46686  53.0540 213.9737 0001570  51.0160 309.0968 15.06416483 80783","MEAN_MOTION_DDOT":"0.0000000000000","TLE_LINE1":"1 46686U 20073S   22095.71699335  .00009524  00000-0  65711-3 0  9996","INCLINATION":"53.0540","RA_OF_ASC_NODE":"213.9737","EPOCH":"2022-04-05T17:12:28.225440","MEAN_MOTION_DOT":"0.00009524","RCS_SIZE":"LARGE","TIME_SYSTEM":"UTC","CLASSIFICATION_TYPE":"U","REV_AT_EPOCH":"8078","EPHEMERIS_TYPE":"0","BSTAR":"0.00065711000000","CENTER_NAME":"EARTH","ELEMENT_SET_NO":"999","MEAN_MOTION":"15.06416483","GP_ID":"200544388","REF_FRAME":"TEME","PERIOD":"95.591","MEAN_ANOMALY":"309.0968","ARG_OF_PERICENTER":"51.0160","ECCENTRICITY":"0.00015700","OBJECT_ID":"2020-073S","SITE":"AFETR","SEMIMAJOR_AXIS":"6925.298","OBJECT_NAME":"STARLINK-1783","DECAY_DATE":null},{"INCLINATION":"53.0545","TLE_LINE2":"2 46687  53.0545 179.9229 0001746  46.1198 313.9935 15.06393748 81245","TLE_LINE1":"1 46687U 20073T   22095.50460233  .00006092  00000-0  42759-3 0  9991","MEAN_MOTION_DDOT":"0.0000000000000","EPOCH":"2022-04-05T12:06:37.641312","RA_OF_ASC_NODE":"179.9229","LAUNCH_DATE":"2020-10-18","PERIAPSIS":"546.024","OBJECT_TYPE":"PAYLOAD","NORAD_CAT_ID":"46687","COUNTRY_CODE":"US","MEAN_ELEMENT_THEORY":"SGP4","FILE":"3389439","APOAPSIS":"548.442","GP_ID":"200507322","MEAN_MOTION":"15.06393748","PERIOD":"95.593","ARG_OF_PERICENTER":"46.1198","MEAN_ANOMALY":"313.9935","REF_FRAME":"TEME","OBJECT_ID":"2020-073T","SEMIMAJOR_AXIS":"6925.368","SITE":"AFETR","ECCENTRICITY":"0.00017460","OBJECT_NAME":"STARLINK-1784","DECAY_DATE":null,"RCS_SIZE":"LARGE","TIME_SYSTEM":"UTC","MEAN_MOTION_DOT":"0.00006092","CLASSIFICATION_TYPE":"U","EPHEMERIS_TYPE":"0","REV_AT_EPOCH":"8124","CENTER_NAME":"EARTH","ELEMENT_SET_NO":"999","BSTAR":"0.00042759000000"},{"OBJECT_TYPE":"PAYLOAD","NORAD_CAT_ID":"46689","PERIAPSIS":"546.035","LAUNCH_DATE":"2020-10-18","APOAPSIS":"548.353","COUNTRY_CODE":"US","FILE":"3389912","MEAN_ELEMENT_THEORY":"SGP4","INCLINATION":"53.0516","MEAN_MOTION_DDOT":"0.0000000000000","TLE_LINE2":"2 46689  53.0516 213.6327 0001673  57.9563 302.1589 15.06406409 82048","TLE_LINE1":"1 46689U 20073V   22095.79439715  .00005915  00000-0  41560-3 0  9997","EPOCH":"2022-04-05T19:03:55.913760","RA_OF_ASC_NODE":"213.6327","CLASSIFICATION_TYPE":"U","REV_AT_EPOCH":"8204","EPHEMERIS_TYPE":"0","RCS_SIZE":"LARGE","TIME_SYSTEM":"UTC","MEAN_MOTION_DOT":"0.00005915","CENTER_NAME":"EARTH","ELEMENT_SET_NO":"999","BSTAR":"0.00041560000000","PERIOD":"95.592","ARG_OF_PERICENTER":"57.9563","MEAN_ANOMALY":"302.1589","REF_FRAME":"TEME","GP_ID":"200542887","MEAN_MOTION":"15.06406409","OBJECT_NAME":"STARLINK-1788","DECAY_DATE":null,"OBJECT_ID":"2020-073V","SITE":"AFETR","SEMIMAJOR_AXIS":"6925.329","ECCENTRICITY":"0.00016730"},{"REF_FRAME":"TEME","MEAN_ANOMALY":"286.5594","PERIOD":"95.591","ARG_OF_PERICENTER":"73.5546","MEAN_MOTION":"15.06413141","GP_ID":"200544138","OBJECT_NAME":"STARLINK-1789","DECAY_DATE":null,"ECCENTRICITY":"0.00013760","OBJECT_ID":"2020-073W","SITE":"AFETR","SEMIMAJOR_AXIS":"6925.308","CLASSIFICATION_TYPE":"U","EPHEMERIS_TYPE":"0","REV_AT_EPOCH":"8112","MEAN_MOTION_DOT":"0.00011396","RCS_SIZE":"LARGE","TIME_SYSTEM":"UTC","BSTAR":"0.00078244000000","CENTER_NAME":"EARTH","ELEMENT_SET_NO":"999","TLE_LINE2":"2 46690  53.0541 189.2109 0001376  73.5546 286.5594 15.06413141 81129","MEAN_MOTION_DDOT":"0.0000000000000","TLE_LINE1":"1 46690U 20073W   22095.66217055  .00011396  00000-0  78244-3 0  9995","INCLINATION":"53.0541","RA_OF_ASC_NODE":"189.2109","EPOCH":"2022-04-05T15:53:31.535520","NORAD_CAT_ID":"46690","OBJECT_TYPE":"PAYLOAD","LAUNCH_DATE":"2020-10-18","PERIAPSIS":"546.220","APOAPSIS":"548.126","FILE":"3389912","MEAN_ELEMENT_THEORY":"SGP4","COUNTRY_CODE":"US"}];
